{
    "links": {
        "self": "http://www.neowsapp.com/rest/v1/neo/3702969?api_key=iIulBulltgU6a56xZRHN4H3l9WmuAYTsLGpBGhQ2"
    },
    "id": "3702969",
    "neo_reference_id": "3702969",
    "name": "(2014 YD14)",
    "designation": "2014 YD14",
    "nasa_jpl_url": "http://ssd.jpl.nasa.gov/sbdb.cgi?sstr=3702969",
    "absolute_magnitude_h": 24.6,
    "estimated_diameter": {
        "kilometers": {
            "estimated_diameter_min": 0.0319561887,
            "estimated_diameter_max": 0.0714562102
        },
        "meters": {
            "estimated_diameter_min": 31.9561886721,
            "estimated_diameter_max": 71.4562101727
        },
        "miles": {
            "estimated_diameter_min": 0.0198566489,
            "estimated_diameter_max": 0.0444008168
        },
        "feet": {
            "estimated_diameter_min": 104.8431420431,
            "estimated_diameter_max": 234.436392583
        }
    },
    "is_potentially_hazardous_asteroid": false,
    "close_approach_data": [
        {
            "close_approach_date": "2014-12-20",
            "close_approach_date_full": "2014-Dec-20 14:39",
            "epoch_date_close_approach": 1419086340000,
            "relative_velocity": {
                "kilometers_per_second": "7.1938117059",
                "kilometers_per_hour": "25897.7221413992",
                "miles_per_hour": "16091.8374050266"
            },
            "miss_distance": {
                "astronomical": "0.0936997439",
                "lunar": "36.4492003771",
                "kilometers": "14017282.106985493",
                "miles": "8709935.2162180834"
            },
            "orbiting_body": "Earth"
        }
    ],
    "orbital_data": {
        "orbit_id": "7",
        "orbit_determination_date": "2017-04-06 08:36:44",
        "first_observation_date": "2014-12-24",
        "last_observation_date": "2015-01-17",
        "data_arc_in_days": 24,
        "observations_used": 48,
        "orbit_uncertainty": "8",
        "minimum_orbit_intersection": ".0935024",
        "jupiter_tisserand_invariant": "3.345",
        "epoch_osculation": "2457019.5",
        "eccentricity": ".5393066767704136",
        "semi_major_axis": "2.334738557219286",
        "inclination": "8.281307019976776",
        "ascending_node_longitude": "93.7348109323454",
        "orbital_period": "1303.034186998177",
        "perihelion_distance": "1.075598464797603",
        "perihelion_argument": "350.8784039281448",
        "aphelion_distance": "3.593878649640969",
        "perihelion_time": "2457008.946269214841",
        "mean_anomaly": "2.915766232818384",
        "mean_motion": ".2762782462594772",
        "equinox": "J2000",
        "orbit_class": {
            "orbit_class_type": "AMO",
            "orbit_class_description": "Near-Earth asteroid orbits similar to that of 1221 Amor",
            "orbit_class_range": "1.017 AU < q (perihelion) < 1.3 AU"
        }
    },
    "is_sentry_object": false
}